HORIZONS 3E             
1 43633U 18074B   21240.37273481 -.00000037  00000-0  00000-0 0  9994
2 43633   0.0267 284.7736 0000590 346.8379   8.3705  1.00270276 10758
AEHF-4 (USA 288)        
1 43651U 18079A   21240.43523052 -.00000096  00000-0  00000-0 0  9993
2 43651   3.0111 313.0481 0000564 151.3539 271.4010  1.00830598 10717
BEIDOU-3 G1             
1 43683U 18085A   21240.43528660 -.00000284  00000-0  00000-0 0  9994
2 43683   0.9582 217.8230 0004467  19.5745  36.1941  1.00270992 10471
GSAT-29                 
1 43698U 18089A   21240.41820319  .00000079  00000-0  00000-0 0  9999
2 43698   0.0536 301.4415 0001103 191.6527  49.3801  1.00274510 10208
ES'HAIL 2               
1 43700U 18090A   21240.39979946  .00000138  00000-0  00000-0 0  9999
2 43700   0.0153 146.5595 0002063  46.9594 313.0538  1.00270188 10098
GEO-KOMPSAT-2A          
1 43823U 18100A   21240.43284449 -.00000349  00000-0  00000-0 0  9994
2 43823   0.0489 300.2616 0001146 278.9253  41.7550  1.00274297 10037
GSAT-11                 
1 43824U 18100B   21240.13494347 -.00000083  00000-0  00000-0 0  9997
2 43824   0.1194 272.6180 0007015 206.1949 340.2983  1.00272422  9916
GSAT-7A                 
1 43864U 18105A   21240.41984900  .00000021  00000-0  00000-0 0  9997
2 43864   0.0502 239.3582 0001830 281.9240  29.4832  1.00270220  9881
COSMOS 2533             
1 43867U 18107A   21240.13415851 -.00000045  00000-0  00000-0 0  9992
2 43867   0.0154 126.5867 0001168  99.1808 229.0991  1.00273763  9826
TJS-3                   
1 43874U 18110A   21240.66969117 -.00000214  00000-0  00000+0 0  9998
2 43874   0.4388  93.4414 0006800  29.3400 183.1621  1.00269470  9895
TJS-3 AKM               
1 43917U 18110C   21240.66297583  .00000052  00000-0  00000+0 0  9996
2 43917   0.1195 270.1565 0006363 275.6145  88.9946  1.00270748  9750
CHINASAT 2D (ZX 2D)     
1 43920U 19001A   21240.59896845 -.00000342  00000-0  00000-0 0  9992
2 43920   0.0244 251.5483 0001693 156.6645 274.4518  1.00271368  9761
HELLAS-SAT 4 & SGS-1    
1 44034U 19007A   21240.39424507  .00000147  00000-0  00000-0 0  9997
2 44034   0.0685 124.7684 0006316  29.3559   3.6206  1.00270589  9779
GSAT-31                 
1 44035U 19007B   21240.26368731  .00000119  00000-0  00000-0 0  9999
2 44035   0.0832 276.5865 0002473 296.7868 266.1154  1.00272936  9398
NUSANTARA SATU          
1 44048U 19009A   21239.93398609 -.00000241  00000-0  00000-0 0  9991
2 44048   0.0193 112.5067 0001999  47.6336 298.4613  1.00271654  9170
CHINASAT 6C (ZX 6C)     
1 44067U 19012A   21240.59896845 -.00000342  00000-0  00000-0 0  9997
2 44067   0.0411 269.5093 0002925   7.3659  45.7751  1.00271391  9148
WGS 10 (USA 291)        
1 44071U 19014A   21240.41932569  .00000041  00000-0  00000-0 0  9994
2 44071   0.0172 132.9202 0000281  97.4898 317.7170  1.00272405  9043
TIANLIAN 2-01           
1 44076U 19017A   21239.49025228 -.00000143  00000-0  00000-0 0  9997
2 44076   0.9581 282.4446 0034552 224.1168  85.7718  1.00269103  9017
ARABSAT-6A              
1 44186U 19021A   21240.23178756  .00000147  00000-0  00000-0 0  9996
2 44186   0.0574 318.8540 0004615 255.8736 235.8829  1.00272603  8581
BEIDOU-3 IGSO-1         
1 44204U 19023A   21239.40741829 -.00000198  00000-0  00000-0 0  9990
2 44204  56.1227  56.1440 0020115 187.7976 352.6540  1.00274150  8769
BEIDOU-2 G8             
1 44231U 19027A   21240.58382968 -.00000253  00000-0  00000-0 0  9992
2 44231   0.2737  25.6125 0006818 169.4182 136.6717  1.00269118  8489
YAMAL 601               
1 44307U 19031A   21240.61993988  .00000114  00000-0  00000-0 0  9990
2 44307   0.0142  92.3989 0001998  55.3938 101.4503  1.00274595  8349
AT&T T-16               
1 44333U 19034A   21240.38722941 -.00000121  00000-0  00000-0 0  9994
2 44333   0.0154 223.9937 0000325 108.8990  42.4817  1.00274362  8042
EUTELSAT 7C             
1 44334U 19034B   21240.41091080  .00000043  00000-0  00000-0 0  9994
2 44334   0.0415 258.3433 0003065 249.0115 344.4219  1.00271873  8525
BEIDOU-3 IGSO-2         
1 44337U 19035A   21240.45256075 -.00000136  00000-0  00000-0 0  9993
2 44337  55.0976 174.3491 0020127 184.6925 258.7489  1.00290702  8115
COSMOS 2539             
1 44457U 19048A   21240.63184149  .00000076  00000-0  00000-0 0  9994
2 44457   0.0299 124.0482 0000677 171.4991 280.9800  1.00273895  7648
EDRS-C                  
1 44475U 19049A   21239.97882702  .00000148  00000-0  00000-0 0  9990
2 44475   0.1030 272.8596 0000800 246.0510 201.0893  1.00268778  7611
INTELSAT 39 (IS-39)     
1 44476U 19049B   21240.20436910  .00000027  00000-0  00000-0 0  9991
2 44476   0.0177 140.4811 0000940 205.3095 126.3578  1.00270149  7573
AMOS-17                 
1 44479U 19050A   21240.40535640  .00000104  00000-0  00000-0 0  9994
2 44479   0.0293 272.0783 0002232 257.0355 330.6341  1.00271626  7607
AEHF-5 (USA 292)        
1 44481U 19051A   21240.15983110  .00000080  00000-0  00000-0 0  9992
2 44481   5.0387 305.6125 0004586 206.0377 297.1081  1.00267120  7684
EUTELSAT 5 WEST B       
1 44624U 19067A   21240.40633019 -.00000048  00000-0  00000-0 0  9991
2 44624   0.0781 328.7080 0006707 164.6282 344.7643  1.00272730  6868
MEV-1                   
1 44625U 19067B   21240.04292834 -.00000208  00000-0  00000-0 0  9996
2 44625   0.0434 278.3575 0001190 255.9059 150.1537  1.00272613  5387
TJS-4                   
1 44637U 19070A   21240.42394825 -.00000175  00000-0  00000-0 0  9991
2 44637   0.0147 191.2766 0000586 142.8897 238.7714  1.00270118  6972
BEIDOU-3 IGSO-3         
1 44709U 19073A   21240.57413278 -.00000172  00000-0  00000-0 0  9991
2 44709  57.7294 299.4214 0020520 183.6796 178.3880  1.00295342  6872
TIBA-1                  
1 44800U 19080A   21240.39424507  .00000150  00000-0  00000-0 0  9993
2 44800   0.0554 349.7588 0002120 177.4452 347.0406  1.00270095  6476
INMARSAT GX5            
1 44801U 19080B   21240.40535640  .00000069  00000-0  00000-0 0  9996
2 44801   0.0496 325.0258 0002444 207.9839 320.7366  1.00273382  6521
JCSAT-18 (KACIFIC 1)    
1 44868U 19091A   21240.43720541 -.00000207  00000-0  00000-0 0  9995
2 44868   0.0220 127.5771 0001506  83.5162  73.1540  1.00268019  6433
ELEKTRO-L 3             
1 44903U 19095A   21240.13537957 -.00000104  00000-0  00000-0 0  9999
2 44903   0.0608 130.2015 0001577  90.4743 240.6988  1.00271738  6120
SHIJIAN-20 (SJ-20)      
1 44910U 19097A   21240.66969117 -.00000214  00000-0  00000+0 0  9995
2 44910   0.4356  93.7563 0006627  31.8238 180.3841  1.00269424  6118
TJS-5                   
1 44978U 20002A   21240.42874524 -.00000348  00000-0  00000-0 0  9997
2 44978   0.3693 282.8356 0003955 211.7003 104.1958  1.00271368  6119
GSAT-30                 
1 45026U 20005A   21240.42386103 -.00000171  00000-0  00000-0 0  9990
2 45026   0.0589 279.2889 0004560 183.1761 110.0028  1.00271555  5933
EUTELSAT KONNECT        
1 45027U 20005B   21240.41091080  .00000044  00000-0  00000-0 0  9995
2 45027   0.0579 126.7159 0003425 133.4544 231.7989  1.00272077  6753
JCSAT-17                
1 45245U 20013A   21239.64550044 -.00000320  00000-0  00000-0 0  9997
2 45245   6.4453 344.3765 0004256 170.1997 189.8806  1.00271741  5645
GEO-KOMPSAT-2B          
1 45246U 20013B   21240.36115119 -.00000349  00000-0  00000-0 0  9990
2 45246   0.0173  59.1812 0001951  54.8482 121.0331  1.00274430  5677
BEIDOU-3 G2             
1 45344U 20017A   21240.56680646 -.00000144  00000-0  00000-0 0  9990
2 45344   2.3410 338.8412 0004154 153.8735 128.3624  1.00271086  5687
AEHF-6 (USA 298)        
1 45465U 20022B   21239.83076187 -.00000304  00000-0  00000-0 0  9995
2 45465   6.6192 305.3499 0045690 350.4499 117.1993  1.00270713  5424
BEIDOU-3 G3             
1 45807U 20040A   21240.60262968 -.00000358  00000-0  00000-0 0  9995
2 45807   2.1185 298.8856 0008240 335.8122  29.7483  1.00277076  4509
APSTAR 6D               
1 45863U 20045A   21240.34910464 -.00000324  00000-0  00000-0 0  9997
2 45863   0.0176 114.1236 0002415  32.5178  89.8266  1.00269434  4279
KOREASAT 116            
1 45920U 20048A   21240.43048962 -.00000368  00000-0  00000-0 0  9997
2 45920   0.0408 308.6452 0000925 234.0275  65.3449  1.00275677  4056
EXPRESS 103             
1 45985U 20053A   21240.64764796 -.00000286  00000-0  00000-0 0  9996
2 45985   0.0450 290.4443 0000274 315.1578  61.1173  1.00270798  4053
EXPRESS 80              
1 45986U 20053B   21240.56680646 -.00000141  00000-0  00000-0 0  9999
2 45986   0.0288 274.9860 0000478   2.5026 343.5309  1.00270797  4051
BSAT-4B                 
1 46112U 20056A   21240.42918134 -.00000356  00000-0  00000-0 0  9993
2 46112   0.0252 176.5960 0003732 338.9440  85.6618  1.00272820  3802
MEV-2                   
1 46113U 20056B   21240.41091080 -.00000016  00000-0  00000-0 0  9998
2 46113   0.0426 276.7977 0000932 250.2487 316.7161  1.00272879 62960
GALAXY 30 (G-30)        
1 46114U 20056C   21240.32757759  .00000031  00000-0  00000-0 0  9997
2 46114   0.0184 154.7208 0002597  18.4727 156.4859  1.00273096  3706
GAOFEN 13               
1 46610U 20071A   21240.43083848 -.00000368  00000-0  00000-0 0  9992
2 46610   1.2281 277.1132 0004505 270.2454  62.4306  1.00272217  3325
TIANTONG-1 2            
1 46916U 20082A   21240.14005587 -.00000360  00000-0  00000-0 0  9997
2 46916   4.8295 297.7449 0004079 216.7718 357.3879  1.00272138  3065
LUCAS (JDRS-1)          
1 47202U 20089A   21240.06656447 -.00000242  00000-0  00000-0 0  9990
2 47202   0.0268 121.0947 0002049  17.3313 312.8146  1.00273305  2817
SXM-7                   
1 47240U 20096A   21240.16895854 -.00000028  00000-0  00000-0 0  9990
2 47240   0.0167 131.0190 0001004 173.5375 337.5533  1.00273075  2730
CMS-01                  
1 47256U 20099A   21240.42386103 -.00000171  00000-0  00000-0 0  9990
2 47256   0.0467 288.9799 0005559 317.8457 325.7038  1.00271081  2611
